{"type": "FeatureCollection", "features": [ {"type": "Feature", "properties": {"norad_id": 40701, "name": "GAOFEN-8", "group": "resource", "lat": -30.21485731045492, "lon": 175.76184866372884, "alt_km": 462.78969783093, "timestamp": "2025-12-18T19:29:52.200316+00:00", "meta": {"OBJECT_NAME": "GAOFEN-8", "OBJECT_ID": "2015-030A", "EPOCH": "2025-12-18T07:08:40.320960", "MEAN_MOTION": 15.38725697, "ECCENTRICITY": 0.00118824, "INCLINATION": 97.6902, "RA_OF_ASC_NODE": 170.7087, "ARG_OF_PERICENTER": 119.575, "MEAN_ANOMALY": 240.6681, "EPHEMERIS_TYPE": 0, "CLASSIFICATION_TYPE": "U", "NORAD_CAT_ID": 40701, "ELEMENT_SET_NO": 999, "REV_AT_EPOCH": 58356, "BSTAR": 0.00029890381, "MEAN_MOTION_DOT": 0.00011381, "MEAN_MOTION_DDOT": 0}, "tle": {"line1": "1 40701U 15030A   25352.29768890  .00011381  00000+0  29890-3 0  9991", "line2": "2 40701  97.6902 170.7087 0011882 119.5750 240.6681 15.38725697583562"}}, "geometry": {"type": "Point", "coordinates": [175.76184866372884, -30.21485731045492]}}, {"type": "Feature", "properties": {"norad_id": 40718, "name": "CARBONITE 1 (CBNT-1)", "group": "resource", "lat": 58.282768440119945, "lon": 6.1313068232149615, "alt_km": 607.1432109441503, "timestamp": "2025-12-18T19:29:52.200326+00:00", "meta": {"OBJECT_NAME": "CARBONITE 1 (CBNT-1)", "OBJECT_ID": "2015-032D", "EPOCH": "2025-12-18T07:37:02.730144", "MEAN_MOTION": 14.82767543, "ECCENTRICITY": 0.00148234, "INCLINATION": 97.6395, "RA_OF_ASC_NODE": 173.1151, "ARG_OF_PERICENTER": 163.3354, "MEAN_ANOMALY": 196.835, "EPHEMERIS_TYPE": 0, "CLASSIFICATION_TYPE": "U", "NORAD_CAT_ID": 40718, "ELEMENT_SET_NO": 999, "REV_AT_EPOCH": 56253, "BSTAR": 0.00016634945, "MEAN_MOTION_DOT": 1.296e-05, "MEAN_MOTION_DDOT": 0}, "tle": {"line1": "1 40718U 15032D   25352.31739271  .00001296  00000+0  16635-3 0  9992", "line2": "2 40718  97.6395 173.1151 0014823 163.3354 196.8350 14.82767543562533"}}, "geometry": {"type": "Point", "coordinates": [6.1313068232149615, 58.282768440119945]}}, {"type": "Feature", "properties": {"norad_id": 40878, "name": "YAOGAN-27", "group": "resource", "lat": 38.4541409367616, "lon": 170.2951847048717, "alt_km": 1200.508931980009, "timestamp": "2025-12-18T19:29:52.200336+00:00", "meta": {"OBJECT_NAME": "YAOGAN-27", "OBJECT_ID": "2015-040A", "EPOCH": "2025-12-18T06:00:45.936288", "MEAN_MOTION": 13.16062418, "ECCENTRICITY": 0.00075637, "INCLINATION": 100.1007, "RA_OF_ASC_NODE": 341.6214, "ARG_OF_PERICENTER": 273.0945, "MEAN_ANOMALY": 86.9304, "EPHEMERIS_TYPE": 0, "CLASSIFICATION_TYPE": "U", "NORAD_CAT_ID": 40878, "ELEMENT_SET_NO": 999, "REV_AT_EPOCH": 49386, "BSTAR": 0.0011155455, "MEAN_MOTION_DOT": 3.81e-06, "MEAN_MOTION_DDOT": 0}, "tle": {"line1": "1 40878U 15040A   25352.25053167  .00000381  00000+0  11155-2 0  9999", "line2": "2 40878 100.1007 341.6214 0007563 273.0945  86.9304 13.16062418493862"}}, "geometry": {"type": "Point", "coordinates": [170.2951847048717, 38.4541409367616]}}, {"type": "Feature", "properties": {"norad_id": 40894, "name": "GAOFEN-9 01", "group": "resource", "lat": 34.23207382141862, "lon": 26.255792003127365, "alt_km": 601.056705565934, "timestamp": "2025-12-18T19:29:52.200347+00:00", "meta": {"OBJECT_NAME": "GAOFEN-9 01", "OBJECT_ID": "2015-047A", "EPOCH": "2025-12-18T06:23:01.038336", "MEAN_MOTION": 14.82436005, "ECCENTRICITY": 0.00279564, "INCLINATION": 97.6536, "RA_OF_ASC_NODE": 30.9827, "ARG_OF_PERICENTER": 16.6099, "MEAN_ANOMALY": 343.6024, "EPHEMERIS_TYPE": 0, "CLASSIFICATION_TYPE": "U", "NORAD_CAT_ID": 40894, "ELEMENT_SET_NO": 999, "REV_AT_EPOCH": 55338, "BSTAR": 0.00012291915, "MEAN_MOTION_DOT": 9.41e-06, "MEAN_MOTION_DDOT": 0}, "tle": {"line1": "1 40894U 15047A   25352.26598424  .00000941  00000+0  12292-3 0  9991", "line2": "2 40894  97.6536  30.9827 0027956  16.6099 343.6024 14.82436005553381"}}, "geometry": {"type": "Point", "coordinates": [26.255792003127365, 34.23207382141862]}}, {"type": "Feature", "properties": {"norad_id": 41026, "name": "YAOGAN-28", "group": "resource", "lat": 21.644321588066187, "lon": 127.52518670593032, "alt_km": 491.5086721817215, "timestamp": "2025-12-18T19:29:52.200357+00:00", "meta": {"OBJECT_NAME": "YAOGAN-28", "OBJECT_ID": "2015-064A", "EPOCH": "2025-12-18T08:22:29.502912", "MEAN_MOTION": 15.24444593, "ECCENTRICITY": 0.00125725, "INCLINATION": 97.2806, "RA_OF_ASC_NODE": 129.9829, "ARG_OF_PERICENTER": 108.1318, "MEAN_ANOMALY": 252.129, "EPHEMERIS_TYPE": 0, "CLASSIFICATION_TYPE": "U", "NORAD_CAT_ID": 41026, "ELEMENT_SET_NO": 999, "REV_AT_EPOCH": 56310, "BSTAR": 0.00029809357, "MEAN_MOTION_DOT": 7.263e-05, "MEAN_MOTION_DDOT": 0}, "tle": {"line1": "1 41026U 15064A   25352.34895258  .00007263  00000+0  29809-3 0  9998", "line2": "2 41026  97.2806 129.9829 0012572 108.1318 252.1290 15.24444593563103"}}, "geometry": {"type": "Point", "coordinates": [127.52518670593032, 21.644321588066187]}}, {"type": "Feature", "properties": {"norad_id": 41038, "name": "YAOGAN-29", "group": "resource", "lat": -66.20255487126451, "lon": 34.653433471814985, "alt_km": 627.489448311615, "timestamp": "2025-12-18T19:29:52.200367+00:00", "meta": {"OBJECT_NAME": "YAOGAN-29", "OBJECT_ID": "2015-069A", "EPOCH": "2025-12-18T06:50:46.733568", "MEAN_MOTION": 14.8288738, "ECCENTRICITY": 3.55e-05, "INCLINATION": 98.0216, "RA_OF_ASC_NODE": 15.4753, "ARG_OF_PERICENTER": 198.4026, "MEAN_ANOMALY": 161.7174, "EPHEMERIS_TYPE": 0, "CLASSIFICATION_TYPE": "U", "NORAD_CAT_ID": 41038, "ELEMENT_SET_NO": 999, "REV_AT_EPOCH": 54381, "BSTAR": 3.0568399e-05, "MEAN_MOTION_DOT": 1.94e-06, "MEAN_MOTION_DDOT": 0}, "tle": {"line1": "1 41038U 15069A   25352.28526312  .00000194  00000+0  30568-4 0  9992", "line2": "2 41038  98.0216  15.4753 0000355 198.4026 161.7174 14.82887380543819"}}, "geometry": {"type": "Point", "coordinates": [34.653433471814985, -66.20255487126451]}}, {"type": "Feature", "properties": {"norad_id": 41167, "name": "KENT RIDGE 1", "group": "resource", "lat": 11.070388742778656, "lon": -146.874542385028, "alt_km": 502.1823852815269, "timestamp": "2025-12-18T19:29:52.200377+00:00", "meta": {"OBJECT_NAME": "KENT RIDGE 1", "OBJECT_ID": "2015-077B", "EPOCH": "2025-12-18T03:33:21.939840", "MEAN_MOTION": 15.21678305, "ECCENTRICITY": 0.00085022, "INCLINATION": 14.978, "RA_OF_ASC_NODE": 171.0083, "ARG_OF_PERICENTER": 207.427, "MEAN_ANOMALY": 152.5603, "EPHEMERIS_TYPE": 0, "CLASSIFICATION_TYPE": "U", "NORAD_CAT_ID": 41167, "ELEMENT_SET_NO": 999, "REV_AT_EPOCH": 55346, "BSTAR": 0.00014125959, "MEAN_MOTION_DOT": 4.046e-05, "MEAN_MOTION_DDOT": 0}, "tle": {"line1": "1 41167U 15077B   25352.14817060  .00004046  00000+0  14126-3 0  9993", "line2": "2 41167  14.9780 171.0083 0008502 207.4270 152.5603 15.21678305553460"}}, "geometry": {"type": "Point", "coordinates": [-146.874542385028, 11.070388742778656]}}, {"type": "Feature", "properties": {"norad_id": 41194, "name": "GAOFEN-4", "group": "resource", "lat": 0.14618753499432396, "lon": 125.80888525838049, "alt_km": 35777.707891474434, "timestamp": "2025-12-18T19:29:52.200389+00:00", "meta": {"OBJECT_NAME": "GAOFEN-4", "OBJECT_ID": "2015-083A", "EPOCH": "2025-12-18T06:57:01.880640", "MEAN_MOTION": 1.0027381, "ECCENTRICITY": 0.00029226, "INCLINATION": 0.1844, "RA_OF_ASC_NODE": 81.7336, "ARG_OF_PERICENTER": 94.1299, "MEAN_ANOMALY": 121.2536, "EPHEMERIS_TYPE": 0, "CLASSIFICATION_TYPE": "U", "NORAD_CAT_ID": 41194, "ELEMENT_SET_NO": 999, "REV_AT_EPOCH": 3671, "BSTAR": 0, "MEAN_MOTION_DOT": -3.1e-06, "MEAN_MOTION_DDOT": 0}, "tle": {"line1": "1 41194U 15083A   25352.28960510 -.00000310  00000+0  00000+0 0  9997", "line2": "2 41194   0.1844  81.7336 0002922  94.1299 121.2536  1.00273810 36714"}}, "geometry": {"type": "Point", "coordinates": [125.80888525838049, 0.14618753499432396]}}, {"type": "Feature", "properties": {"norad_id": 41240, "name": "JASON-3", "group": "resource", "lat": 16.651063468289596, "lon": 152.69945702494877, "alt_km": 1312.1519989671606, "timestamp": "2025-12-18T19:29:52.200400+00:00", "meta": {"OBJECT_NAME": "JASON-3", "OBJECT_ID": "2016-002A", "EPOCH": "2025-12-18T06:21:16.832160", "MEAN_MOTION": 12.87626819, "ECCENTRICITY": 0.00071927, "INCLINATION": 66.0396, "RA_OF_ASC_NODE": 146.2083, "ARG_OF_PERICENTER": 271.1486, "MEAN_ANOMALY": 88.8709, "EPHEMERIS_TYPE": 0, "CLASSIFICATION_TYPE": "U", "NORAD_CAT_ID": 41240, "ELEMENT_SET_NO": 999, "REV_AT_EPOCH": 46395, "BSTAR": 7.0904595e-05, "MEAN_MOTION_DOT": -4.4e-07, "MEAN_MOTION_DDOT": 0}, "tle": {"line1": "1 41240U 16002A   25352.26477815 -.00000044  00000+0  70905-4 0  9990", "line2": "2 41240  66.0396 146.2083 0007192 271.1486  88.8709 12.87626819463952"}}, "geometry": {"type": "Point", "coordinates": [152.69945702494877, 16.651063468289596]}}, {"type": "Feature", "properties": {"norad_id": 41335, "name": "SENTINEL-3A", "group": "resource", "lat": -25.919135056221904, "lon": -126.49316967313321, "alt_km": 808.5598075343632, "timestamp": "2025-12-18T19:29:52.200410+00:00", "meta": {"OBJECT_NAME": "SENTINEL-3A", "OBJECT_ID": "2016-011A", "EPOCH": "2025-12-18T06:45:10.473408", "MEAN_MOTION": 14.26732845, "ECCENTRICITY": 9.128e-05, "INCLINATION": 98.6309, "RA_OF_ASC_NODE": 57.2163, "ARG_OF_PERICENTER": 92.765, "MEAN_ANOMALY": 267.3635, "EPHEMERIS_TYPE": 0, "CLASSIFICATION_TYPE": "U", "NORAD_CAT_ID": 41335, "ELEMENT_SET_NO": 999, "REV_AT_EPOCH": 51226, "BSTAR": 6.5786303e-05, "MEAN_MOTION_DOT": 1.15e-06, "MEAN_MOTION_DDOT": 0}, "tle": {"line1": "1 41335U 16011A   25352.28137122  .00000115  00000+0  65786-4 0  9990", "line2": "2 41335  98.6309  57.2163 0000912  92.7650 267.3635 14.26732845512268"}}, "geometry": {"type": "Point", "coordinates": [-126.49316967313321, -25.919135056221904]}}]}